start=new Date('2021-08-28T00:00:00.000Z').valueOf();
sats=[{"NORAD_CAT_ID":"47152","MEAN_MOTION":"15.06398735","REV_AT_EPOCH":"4236","CLASSIFICATION_TYPE":"U","OBJECT_NAME":"STARLINK-1866","LAUNCH_DATE":"2020-11-25","TLE_LINE2":"2 47152  53.0546 171.9843 0001916  60.5447 299.5733 15.06398735 42360","BSTAR":"0.00011503000000","RCS_SIZE":"LARGE","FILE":"3104038","EPHEMERIS_TYPE":"0","PERIAPSIS":"545.891","CENTER_NAME":"EARTH","ECCENTRICITY":"0.00019160","MEAN_MOTION_DDOT":"0.0000000000000","DECAY_DATE":null,"ELEMENT_SET_NO":"999","MEAN_ANOMALY":"299.5733","PERIOD":"95.592","SEMIMAJOR_AXIS":"6925.352","ARG_OF_PERICENTER":"60.5447","MEAN_MOTION_DOT":"0.00001432","RA_OF_ASC_NODE":"171.9843","REF_FRAME":"TEME","OBJECT_TYPE":"PAYLOAD","SITE":"AFETR","COUNTRY_CODE":"US","INCLINATION":"53.0546","APOAPSIS":"548.544","EPOCH":"2021-08-27T12:25:36.166944","GP_ID":"183556583","TLE_LINE1":"1 47152U 20088AG  21239.51777971  .00001432  00000-0  11503-3 0  9991","MEAN_ELEMENT_THEORY":"SGP4","TIME_SYSTEM":"UTC","OBJECT_ID":"2020-088AG"},{"MEAN_MOTION_DOT":"-0.00000417","REF_FRAME":"TEME","RA_OF_ASC_NODE":"177.6891","PERIOD":"95.592","SEMIMAJOR_AXIS":"6925.361","ARG_OF_PERICENTER":"50.5361","MEAN_ANOMALY":"309.5792","ELEMENT_SET_NO":"999","MEAN_ELEMENT_THEORY":"SGP4","TIME_SYSTEM":"UTC","OBJECT_ID":"2020-088AH","GP_ID":"183529553","TLE_LINE1":"1 47153U 20088AH  21239.35972485 -.00000417  00000-0 -90980-5 0  9993","INCLINATION":"53.0557","APOAPSIS":"548.511","EPOCH":"2021-08-27T08:38:00.227040","COUNTRY_CODE":"US","OBJECT_TYPE":"PAYLOAD","SITE":"AFETR","OBJECT_NAME":"STARLINK-1867","CLASSIFICATION_TYPE":"U","REV_AT_EPOCH":"4227","NORAD_CAT_ID":"47153","MEAN_MOTION":"15.06396021","DECAY_DATE":null,"MEAN_MOTION_DDOT":"0.0000000000000","ECCENTRICITY":"0.00018560","PERIAPSIS":"545.940","FILE":"3103885","RCS_SIZE":"LARGE","CENTER_NAME":"EARTH","EPHEMERIS_TYPE":"0","TLE_LINE2":"2 47153  53.0557 177.6891 0001856  50.5361 309.5792 15.06396021 42279","BSTAR":"-0.00000909800000","LAUNCH_DATE":"2020-11-25"},{"OBJECT_TYPE":"PAYLOAD","SITE":"AFETR","COUNTRY_CODE":"US","APOAPSIS":"548.458","INCLINATION":"53.0553","EPOCH":"2021-08-27T14:55:32.635200","MEAN_ELEMENT_THEORY":"SGP4","OBJECT_ID":"2020-088AJ","TIME_SYSTEM":"UTC","GP_ID":"183557584","TLE_LINE1":"1 47154U 20088AJ  21239.62190550  .00001820  00000-0  14104-3 0  9998","MEAN_ANOMALY":"294.5920","ELEMENT_SET_NO":"999","PERIOD":"95.592","SEMIMAJOR_AXIS":"6925.322","ARG_OF_PERICENTER":"65.5260","MEAN_MOTION_DOT":"0.00001820","REF_FRAME":"TEME","RA_OF_ASC_NODE":"161.5189","LAUNCH_DATE":"2020-11-25","FILE":"3104038","PERIAPSIS":"545.915","RCS_SIZE":"LARGE","CENTER_NAME":"EARTH","EPHEMERIS_TYPE":"0","TLE_LINE2":"2 47154  53.0553 161.5189 0001836  65.5260 294.5920 15.06408792 42523","BSTAR":"0.00014104000000","ECCENTRICITY":"0.00018360","DECAY_DATE":null,"MEAN_MOTION_DDOT":"0.0000000000000","REV_AT_EPOCH":"4252","NORAD_CAT_ID":"47154","MEAN_MOTION":"15.06408792","CLASSIFICATION_TYPE":"U","OBJECT_NAME":"STARLINK-1868"},{"EPOCH":"2021-08-27T18:57:02.742912","INCLINATION":"53.0531","APOAPSIS":"548.323","TIME_SYSTEM":"UTC","OBJECT_ID":"2020-088AK","MEAN_ELEMENT_THEORY":"SGP4","TLE_LINE1":"1 47155U 20088AK  21239.78961508  .00000547  00000-0  55586-4 0  9990","GP_ID":"183557302","SITE":"AFETR","OBJECT_TYPE":"PAYLOAD","COUNTRY_CODE":"US","RA_OF_ASC_NODE":"180.7585","REF_FRAME":"TEME","MEAN_MOTION_DOT":"0.00000547","MEAN_ANOMALY":"296.5183","ELEMENT_SET_NO":"999","SEMIMAJOR_AXIS":"6925.342","ARG_OF_PERICENTER":"63.5971","PERIOD":"95.592","ECCENTRICITY":"0.00016110","DECAY_DATE":null,"MEAN_MOTION_DDOT":"0.0000000000000","LAUNCH_DATE":"2020-11-25","RCS_SIZE":"LARGE","FILE":"3104038","PERIAPSIS":"546.092","CENTER_NAME":"EARTH","EPHEMERIS_TYPE":"0","BSTAR":"0.00005558600000","TLE_LINE2":"2 47155  53.0531 180.7585 0001611  63.5971 296.5183 15.06402021 42264","CLASSIFICATION_TYPE":"U","OBJECT_NAME":"STARLINK-1869","REV_AT_EPOCH":"4226","MEAN_MOTION":"15.06402021","NORAD_CAT_ID":"47155"},{"REV_AT_EPOCH":"4299","MEAN_MOTION":"15.33583512","NORAD_CAT_ID":"47156","OBJECT_NAME":"STARLINK-1870","CLASSIFICATION_TYPE":"U","FILE":"3103885","RCS_SIZE":"LARGE","PERIAPSIS":"463.940","EPHEMERIS_TYPE":"0","CENTER_NAME":"EARTH","BSTAR":"-0.00000095283000","TLE_LINE2":"2 47156  53.0551 124.9777 0001744  57.2698 302.8471 15.33583512 42999","LAUNCH_DATE":"2020-11-25","DECAY_DATE":null,"MEAN_MOTION_DDOT":"0.0000000000000","ECCENTRICITY":"0.00017440","SEMIMAJOR_AXIS":"6843.268","ARG_OF_PERICENTER":"57.2698","PERIOD":"93.898","ELEMENT_SET_NO":"999","MEAN_ANOMALY":"302.8471","RA_OF_ASC_NODE":"124.9777","REF_FRAME":"TEME","MEAN_MOTION_DOT":"-0.00000405","COUNTRY_CODE":"US","SITE":"AFETR","OBJECT_TYPE":"PAYLOAD","TIME_SYSTEM":"UTC","OBJECT_ID":"2020-088AL","MEAN_ELEMENT_THEORY":"SGP4","TLE_LINE1":"1 47156U 20088AL  21239.06813371 -.00000405  00000-0 -95283-6 0  9991","GP_ID":"183530778","EPOCH":"2021-08-27T01:38:06.752544","APOAPSIS":"466.327","INCLINATION":"53.0551"},{"MEAN_MOTION":"15.06404646","NORAD_CAT_ID":"47157","REV_AT_EPOCH":"4233","OBJECT_NAME":"STARLINK-1871","CLASSIFICATION_TYPE":"U","BSTAR":"0.00010712000000","TLE_LINE2":"2 47157  53.0551 172.9766 0001837  59.0967 301.0202 15.06404646 42334","EPHEMERIS_TYPE":"0","FILE":"3103885","RCS_SIZE":"LARGE","PERIAPSIS":"545.927","CENTER_NAME":"EARTH","LAUNCH_DATE":"2020-11-25","MEAN_MOTION_DDOT":"0.0000000000000","DECAY_DATE":null,"ECCENTRICITY":"0.00018370","SEMIMAJOR_AXIS":"6925.334","ARG_OF_PERICENTER":"59.0967","PERIOD":"95.592","MEAN_ANOMALY":"301.0202","ELEMENT_SET_NO":"999","RA_OF_ASC_NODE":"172.9766","REF_FRAME":"TEME","MEAN_MOTION_DOT":"0.00001314","COUNTRY_CODE":"US","SITE":"AFETR","OBJECT_TYPE":"PAYLOAD","TLE_LINE1":"1 47157U 20088AM  21239.29661940  .00001314  00000-0  10712-3 0  9999","GP_ID":"183530053","OBJECT_ID":"2020-088AM","TIME_SYSTEM":"UTC","MEAN_ELEMENT_THEORY":"SGP4","EPOCH":"2021-08-27T07:07:07.916160","INCLINATION":"53.0551","APOAPSIS":"548.472"},{"TLE_LINE2":"2 47158  53.0547 161.9560 0002108  67.4527 292.6685 15.06399589 42505","BSTAR":"0.00011968000000","CENTER_NAME":"EARTH","FILE":"3104038","RCS_SIZE":"LARGE","PERIAPSIS":"545.755","EPHEMERIS_TYPE":"0","LAUNCH_DATE":"2020-11-25","MEAN_MOTION_DDOT":"0.0000000000000","DECAY_DATE":null,"ECCENTRICITY":"0.00021080","NORAD_CAT_ID":"47158","MEAN_MOTION":"15.06399589","REV_AT_EPOCH":"4250","OBJECT_NAME":"STARLINK-1873","CLASSIFICATION_TYPE":"U","COUNTRY_CODE":"US","OBJECT_TYPE":"PAYLOAD","SITE":"AFETR","GP_ID":"183557070","TLE_LINE1":"1 47158U 20088AN  21239.51871025  .00001501  00000-0  11968-3 0  9994","MEAN_ELEMENT_THEORY":"SGP4","OBJECT_ID":"2020-088AN","TIME_SYSTEM":"UTC","INCLINATION":"53.0547","APOAPSIS":"548.675","EPOCH":"2021-08-27T12:26:56.565600","PERIOD":"95.592","SEMIMAJOR_AXIS":"6925.350","ARG_OF_PERICENTER":"67.4527","MEAN_ANOMALY":"292.6685","ELEMENT_SET_NO":"999","MEAN_MOTION_DOT":"0.00001501","RA_OF_ASC_NODE":"161.9560","REF_FRAME":"TEME"},{"PERIOD":"95.593","SEMIMAJOR_AXIS":"6925.371","ARG_OF_PERICENTER":"77.3197","ELEMENT_SET_NO":"999","MEAN_ANOMALY":"282.7983","MEAN_MOTION_DOT":"-0.00000635","RA_OF_ASC_NODE":"172.0046","REF_FRAME":"TEME","COUNTRY_CODE":"US","OBJECT_TYPE":"PAYLOAD","SITE":"AFETR","GP_ID":"183557817","TLE_LINE1":"1 47159U 20088AP  21239.51410664 -.00000635  00000-0 -23716-4 0  9997","MEAN_ELEMENT_THEORY":"SGP4","OBJECT_ID":"2020-088AP","TIME_SYSTEM":"UTC","APOAPSIS":"548.422","INCLINATION":"53.0547","EPOCH":"2021-08-27T12:20:18.813696","NORAD_CAT_ID":"47159","MEAN_MOTION":"15.06392522","REV_AT_EPOCH":"4236","OBJECT_NAME":"STARLINK-1874","CLASSIFICATION_TYPE":"U","TLE_LINE2":"2 47159  53.0547 172.0046 0001712  77.3197 282.7983 15.06392522 42366","BSTAR":"-0.00002371600000","PERIAPSIS":"546.051","FILE":"3104038","RCS_SIZE":"LARGE","EPHEMERIS_TYPE":"0","CENTER_NAME":"EARTH","LAUNCH_DATE":"2020-11-25","MEAN_MOTION_DDOT":"0.0000000000000","DECAY_DATE":null,"ECCENTRICITY":"0.00017120"},{"MEAN_MOTION":"15.42165858","NORAD_CAT_ID":"47160","REV_AT_EPOCH":"4254","CLASSIFICATION_TYPE":"U","OBJECT_NAME":"STARLINK-1875","LAUNCH_DATE":"2020-11-25","BSTAR":"-0.00003669200000","TLE_LINE2":"2 47160  53.0554 157.8518 0001283  83.5700 276.5451 15.42165858 42544","FILE":"3103885","RCS_SIZE":"LARGE","PERIAPSIS":"438.846","CENTER_NAME":"EARTH","EPHEMERIS_TYPE":"0","ECCENTRICITY":"0.00012830","MEAN_MOTION_DDOT":"0.0000000000000","DECAY_DATE":null,"ELEMENT_SET_NO":"999","MEAN_ANOMALY":"276.5451","SEMIMAJOR_AXIS":"6817.855","ARG_OF_PERICENTER":"83.5700","PERIOD":"93.375","RA_OF_ASC_NODE":"157.8518","REF_FRAME":"TEME","MEAN_MOTION_DOT":"-0.00002008","SITE":"AFETR","OBJECT_TYPE":"PAYLOAD","COUNTRY_CODE":"US","EPOCH":"2021-08-27T06:15:58.417056","INCLINATION":"53.0554","APOAPSIS":"440.595","TLE_LINE1":"1 47160U 20088AQ  21239.26109279 -.00002008  00000-0 -36692-4 0  9991","GP_ID":"183531278","TIME_SYSTEM":"UTC","OBJECT_ID":"2020-088AQ","MEAN_ELEMENT_THEORY":"SGP4"},{"PERIOD":"95.592","ARG_OF_PERICENTER":"67.6854","SEMIMAJOR_AXIS":"6925.356","ELEMENT_SET_NO":"999","MEAN_ANOMALY":"292.4334","MEAN_MOTION_DOT":"-0.00000379","RA_OF_ASC_NODE":"163.0124","REF_FRAME":"TEME","COUNTRY_CODE":"US","OBJECT_TYPE":"PAYLOAD","SITE":"AFETR","MEAN_ELEMENT_THEORY":"SGP4","OBJECT_ID":"2020-088AR","TIME_SYSTEM":"UTC","GP_ID":"183529554","TLE_LINE1":"1 47161U 20088AR  21239.28649148 -.00000379  00000-0 -65470-5 0  9994","INCLINATION":"53.0542","APOAPSIS":"548.524","EPOCH":"2021-08-27T06:52:32.863872","REV_AT_EPOCH":"4247","NORAD_CAT_ID":"47161","MEAN_MOTION":"15.06397587","OBJECT_NAME":"STARLINK-1876","CLASSIFICATION_TYPE":"U","FILE":"3103885","PERIAPSIS":"545.918","RCS_SIZE":"LARGE","EPHEMERIS_TYPE":"0","CENTER_NAME":"EARTH","TLE_LINE2":"2 47161  53.0542 163.0124 0001882  67.6854 292.4334 15.06397587 42477","BSTAR":"-0.00000654700000","LAUNCH_DATE":"2020-11-25","DECAY_DATE":null,"MEAN_MOTION_DDOT":"0.0000000000000","ECCENTRICITY":"0.00018820"}];
